NAVSTAR 77 (USA 289)    
1 43873U 18109A   24134.42741573  .00000040  00000+0  00000+0 0  9993
2 43873  55.2844 122.4003 0028668 195.8787 336.1970  2.00554469 39738
